[Satellite]
VERSION=1.1
NAME=EUTELSAT 9B
NICKNAME=EUTELSAT 9B
TLE1=1 41310U 16005A   17185.19051511  .00000056  00000-0  00000-0 0  9997
TLE2=2 41310   0.0284 104.9214 0001037 188.1272  66.9317  1.00275716  5338
